OBJECT_NAME,OBJECT_ID,EPOCH,MEAN_MOTION,ECCENTRICITY,INCLINATION,RA_OF_ASC_NODE,ARG_OF_PERICENTER,MEAN_ANOMALY,EPHEMERIS_TYPE,CLASSIFICATION_TYPE,NORAD_CAT_ID,ELEMENT_SET_NO,REV_AT_EPOCH,BSTAR,MEAN_MOTION_DOT,MEAN_MOTION_DDOT
STARLINK-35462,2025-223Z,2026-06-25T05:25:51.424032,15.30218925,.00012326,53.1562,154.4119,88.3536,271.7606,0,U,65877,999,4067,.74371621E-3,.21745E-3,0
STARLINK-35453,2025-223AA,2026-06-25T04:52:24.235392,15.34377176,.0001212,53.1582,153.5643,82.8821,277.2319,0,U,65878,999,4068,.86676944E-3,.29001E-3,0
STARLINK-35418,2025-223AB,2026-06-25T05:13:37.626240,15.34431057,.00009986,53.1557,153.6535,74.8198,285.2915,0,U,65879,999,4068,.91769196E-3,.30787E-3,0
STARLINK-35445,2025-223AC,2026-06-25T05:07:33.661056,15.34419669,.00011914,53.1576,153.6282,88.8019,271.3120,0,U,65880,999,4068,.82076402E-3,.27474E-3,0
STARLINK-35464,2025-223AD,2026-06-25T04:43:19.389216,15.34413153,.00012921,53.1586,153.5218,90.6401,269.4749,0,U,65881,999,4068,.494657E-3,.1638E-3,0
STARLINK-35270,2025-224A,2026-06-25T10:02:43.665216,15.34406396,.0001213,53.1578,229.1561,86.3576,273.7566,0,U,65882,999,4134,.61461727E-3,.2045E-3,0
STARLINK-35367,2025-224B,2026-06-25T12:52:08.402304,15.34416933,.00011016,53.1582,228.4678,68.6103,291.5017,0,U,65883,999,4136,.85347434E-3,.28585E-3,0
STARLINK-35384,2025-224C,2026-06-25T12:40:07.693248,15.30205763,.00005992,53.1577,230.5378,63.8529,296.2534,0,U,65884,999,4133,.60989382E-3,.17751E-3,0
STARLINK-35415,2025-224D,2026-06-25T12:43:03.114624,15.34406017,.00011361,53.1581,228.4268,86.0693,274.0440,0,U,65885,999,4131,.70457308E-3,.23508E-3,0
STARLINK-35413,2025-224E,2026-06-25T11:03:11.774880,15.34418391,.00010522,53.1579,228.7015,102.9486,257.1634,0,U,65886,999,4130,.72579019E-3,.24239E-3,0
STARLINK-35332,2025-224F,2026-06-25T09:17:17.605248,15.34430188,.00009064,53.1571,228.9533,62.4889,297.6205,0,U,65887,999,4137,.75933597E-3,.25391E-3,0
STARLINK-35362,2025-224G,2026-06-25T11:16:42.788352,15.30206897,.0001175,53.1597,230.8885,89.0917,271.0218,0,U,65888,999,4132,.35840177E-3,.10273E-3,0
STARLINK-35193,2025-224H,2026-06-25T13:04:26.522688,15.30238722,.00011625,53.1597,230.6342,79.6945,280.4186,0,U,65889,999,4136,.48520621E-3,.14056E-3,0
STARLINK-34542,2025-224J,2026-06-25T11:25:49.905120,15.30207021,.00010744,53.1588,230.9297,70.8237,289.2880,0,U,65890,999,4137,.65713373E-3,.19158E-3,0
STARLINK-34791,2025-224K,2026-06-25T10:05:27.268800,15.30204586,.0001241,53.1586,231.2837,78.7878,281.3262,0,U,65891,999,4136,.79511666E-3,.23267E-3,0
STARLINK-34853,2025-224L,2026-06-25T09:53:38.463072,15.34413911,.00011501,53.1584,229.1158,67.1555,292.9569,0,U,65892,999,4132,.98356136E-3,.33016E-3,0
STARLINK-34921,2025-224M,2026-06-25T11:21:15.260256,15.30226575,.00009547,53.1588,230.8978,82.4880,277.6230,0,U,65893,999,4137,.51720697E-3,.15003E-3,0
STARLINK-34672,2025-224N,2026-06-25T12:44:41.416224,15.30203195,.00010332,53.1575,230.5507,89.7987,270.3132,0,U,65894,999,4138,.78417322E-3,.2294E-3,0
STARLINK-34898,2025-224P,2026-06-25T13:07:17.527296,15.34396796,.0001223,53.1583,228.5229,80.3691,279.7450,0,U,65895,999,4141,.11990712E-2,.4035E-3,0
STARLINK-34906,2025-224Q,2026-06-25T12:45:50.777280,15.31722007,.0001116,53.1581,229.8478,78.3256,281.7871,0,U,65896,999,4139,.538847E-3,.16404E-3,0
STARLINK-34934,2025-224R,2026-06-25T11:15:18.979488,15.34414319,.00010363,53.1571,228.7444,84.9941,275.1180,0,U,65897,999,4135,.686231E-3,.22891E-3,0
STARLINK-34936,2025-224S,2026-06-25T12:58:13.475136,15.34406338,.00011613,53.1586,228.4816,65.9790,294.1334,0,U,65898,999,4141,.96681864E-3,.32437E-3,0
STARLINK-35272,2025-224T,2026-06-25T12:33:57.705984,15.34405103,.00011312,53.1572,228.3751,89.8804,270.2328,0,U,65899,999,4140,.71490916E-3,.23859E-3,0
STARLINK-35264,2025-224U,2026-06-25T12:27:54.026784,15.34406334,.000111,53.1571,228.3490,93.4285,266.6845,0,U,65900,999,4140,.90912786E-3,.30471E-3,0
STARLINK-35249,2025-224V,2026-06-25T12:47:43.440288,15.30212471,.00009839,53.1589,230.5596,87.3286,272.7828,0,U,65901,999,4136,.61432101E-3,.17886E-3,0
STARLINK-35278,2025-224W,2026-06-25T09:54:49.034592,15.30207448,.00015172,53.1598,231.2321,85.9699,274.1475,0,U,65902,999,4136,.75039921E-3,.21936E-3,0
STARLINK-35210,2025-224X,2026-06-25T13:16:35.800896,15.30207920,.00011082,53.1584,230.6861,75.5488,284.5635,0,U,65903,999,4136,.11665894E-2,.3436E-3,0
STARLINK-35348,2025-224Y,2026-06-25T12:40:01.166592,15.34403851,.00011323,53.1579,228.4011,79.6253,280.4877,0,U,65904,999,4136,.1237715E-2,.4168E-3,0
STARLINK-35380,2025-224Z,2026-06-25T12:34:02.937504,15.30207426,.00010219,53.1564,230.4998,87.4688,272.6430,0,U,65905,999,4133,.10065024E-2,.29576E-3,0
STARLINK-35385,2025-224AA,2026-06-25T12:55:10.287264,15.34403497,.00011335,53.1581,228.4667,75.2389,284.8740,0,U,65906,999,4139,.71702484E-3,.2393E-3,0
