[
  {
    "name": "STARLINK-35462",
    "noradId": "65877",
    "line1": "1 65877U 25223Z   26176.22628963  .00021745  00000+0  74372-3 0  9991",
    "line2": "2 65877  53.1562 154.4119 0001232  88.3536 271.7606 15.30218925 40675"
  },
  {
    "name": "STARLINK-35453",
    "noradId": "65878",
    "line1": "1 65878U 25223AA  26176.20305828  .00029001  00000+0  86677-3 0  9996",
    "line2": "2 65878  53.1582 153.5643 0001212  82.8821 277.2319 15.34377176 40685"
  },
  {
    "name": "STARLINK-35418",
    "noradId": "65879",
    "line1": "1 65879U 25223AB  26176.21779660  .00030787  00000+0  91769-3 0  9998",
    "line2": "2 65879  53.1557 153.6535 0000998  74.8198 285.2915 15.34431057 40687"
  },
  {
    "name": "STARLINK-35445",
    "noradId": "65880",
    "line1": "1 65880U 25223AC  26176.21358404  .00027474  00000+0  82076-3 0  9999",
    "line2": "2 65880  53.1576 153.6282 0001191  88.8019 271.3120 15.34419669 40681"
  },
  {
    "name": "STARLINK-35464",
    "noradId": "65881",
    "line1": "1 65881U 25223AD  26176.19675219  .00016380  00000+0  49466-3 0  9993",
    "line2": "2 65881  53.1586 153.5218 0001292  90.6401 269.4749 15.34413153 40686"
  },
  {
    "name": "STARLINK-35270",
    "noradId": "65882",
    "line1": "1 65882U 25224A   26176.41856094  .00020450  00000+0  61462-3 0  9995",
    "line2": "2 65882  53.1578 229.1561 0001213  86.3576 273.7566 15.34406396 41347"
  },
  {
    "name": "STARLINK-35367",
    "noradId": "65883",
    "line1": "1 65883U 25224B   26176.53620836  .00028585  00000+0  85347-3 0  9997",
    "line2": "2 65883  53.1582 228.4678 0001101  68.6103 291.5017 15.34416933 41368"
  },
  {
    "name": "STARLINK-35384",
    "noradId": "65884",
    "line1": "1 65884U 25224C   26176.52786682  .00017751  00000+0  60989-3 0  9997",
    "line2": "2 65884  53.1577 230.5378 0000599  63.8529 296.2534 15.30205763 41339"
  },
  {
    "name": "STARLINK-35415",
    "noradId": "65885",
    "line1": "1 65885U 25224D   26176.52989716  .00023508  00000+0  70457-3 0  9999",
    "line2": "2 65885  53.1581 228.4268 0001136  86.0693 274.0440 15.34406017 41313"
  },
  {
    "name": "STARLINK-35413",
    "noradId": "65886",
    "line1": "1 65886U 25224E   26176.46055295  .00024239  00000+0  72579-3 0  9998",
    "line2": "2 65886  53.1579 228.7015 0001052 102.9486 257.1634 15.34418391 41303"
  },
  {
    "name": "STARLINK-35332",
    "noradId": "65887",
    "line1": "1 65887U 25224F   26176.38700932  .00025391  00000+0  75934-3 0  9993",
    "line2": "2 65887  53.1571 228.9533 0000906  62.4889 297.6205 15.34430188 41375"
  },
  {
    "name": "STARLINK-35362",
    "noradId": "65888",
    "line1": "1 65888U 25224G   26176.46993968  .00010273  00000+0  35840-3 0  9991",
    "line2": "2 65888  53.1597 230.8885 0001175  89.0917 271.0218 15.30206897 41321"
  },
  {
    "name": "STARLINK-35193",
    "noradId": "65889",
    "line1": "1 65889U 25224H   26176.54475142  .00014056  00000+0  48521-3 0  9993",
    "line2": "2 65889  53.1597 230.6342 0001162  79.6945 280.4186 15.30238722 41364"
  },
  {
    "name": "STARLINK-34542",
    "noradId": "65890",
    "line1": "1 65890U 25224J   26176.47627205  .00019158  00000+0  65713-3 0  9996",
    "line2": "2 65890  53.1588 230.9297 0001074  70.8237 289.2880 15.30207021 41374"
  },
  {
    "name": "STARLINK-34791",
    "noradId": "65891",
    "line1": "1 65891U 25224K   26176.42045450  .00023267  00000+0  79512-3 0  9996",
    "line2": "2 65891  53.1586 231.2837 0001241  78.7878 281.3262 15.30204586 41360"
  },
  {
    "name": "STARLINK-34853",
    "noradId": "65892",
    "line1": "1 65892U 25224L   26176.41225073  .00033016  00000+0  98356-3 0  9997",
    "line2": "2 65892  53.1584 229.1158 0001150  67.1555 292.9569 15.34413911 41326"
  },
  {
    "name": "STARLINK-34921",
    "noradId": "65893",
    "line1": "1 65893U 25224M   26176.47309329  .00015003  00000+0  51721-3 0  9992",
    "line2": "2 65893  53.1588 230.8978 0000954  82.4880 277.6230 15.30226575 41376"
  },
  {
    "name": "STARLINK-34672",
    "noradId": "65894",
    "line1": "1 65894U 25224N   26176.53103491  .00022940  00000+0  78417-3 0  9991",
    "line2": "2 65894  53.1575 230.5507 0001033  89.7987 270.3132 15.30203195 41380"
  },
  {
    "name": "STARLINK-34898",
    "noradId": "65895",
    "line1": "1 65895U 25224P   26176.54673064  .00040350  00000+0  11991-2 0  9999",
    "line2": "2 65895  53.1583 228.5229 0001223  80.3691 279.7450 15.34396796 41412"
  },
  {
    "name": "STARLINK-34906",
    "noradId": "65896",
    "line1": "1 65896U 25224Q   26176.53183770  .00016404  00000+0  53885-3 0  9991",
    "line2": "2 65896  53.1581 229.8478 0001116  78.3256 281.7871 15.31722007 41398"
  },
  {
    "name": "STARLINK-34934",
    "noradId": "65897",
    "line1": "1 65897U 25224R   26176.46896967  .00022891  00000+0  68623-3 0  9996",
    "line2": "2 65897  53.1571 228.7444 0001036  84.9941 275.1180 15.34414319 41357"
  },
  {
    "name": "STARLINK-34936",
    "noradId": "65898",
    "line1": "1 65898U 25224S   26176.54043374  .00032437  00000+0  96682-3 0  9995",
    "line2": "2 65898  53.1586 228.4816 0001161  65.9790 294.1334 15.34406338 41415"
  },
  {
    "name": "STARLINK-35272",
    "noradId": "65899",
    "line1": "1 65899U 25224T   26176.52358456  .00023859  00000+0  71491-3 0  9993",
    "line2": "2 65899  53.1572 228.3751 0001131  89.8804 270.2328 15.34405103 41402"
  },
  {
    "name": "STARLINK-35264",
    "noradId": "65900",
    "line1": "1 65900U 25224U   26176.51937531  .00030471  00000+0  90913-3 0  9990",
    "line2": "2 65900  53.1571 228.3490 0001110  93.4285 266.6845 15.34406334 41405"
  },
  {
    "name": "STARLINK-35249",
    "noradId": "65901",
    "line1": "1 65901U 25224V   26176.53314167  .00017886  00000+0  61432-3 0  9996",
    "line2": "2 65901  53.1589 230.5596 0000983  87.3286 272.7828 15.30212471 41364"
  },
  {
    "name": "STARLINK-35278",
    "noradId": "65902",
    "line1": "1 65902U 25224W   26176.41306753  .00021936  00000+0  75040-3 0  9997",
    "line2": "2 65902  53.1598 231.2321 0001517  85.9699 274.1475 15.30207448 41367"
  },
  {
    "name": "STARLINK-35210",
    "noradId": "65903",
    "line1": "1 65903U 25224X   26176.55319214  .00034360  00000+0  11666-2 0  9997",
    "line2": "2 65903  53.1584 230.6861 0001108  75.5488 284.5635 15.30207920 41360"
  },
  {
    "name": "STARLINK-35348",
    "noradId": "65904",
    "line1": "1 65904U 25224Y   26176.52779128  .00041680  00000+0  12377-2 0  9992",
    "line2": "2 65904  53.1579 228.4011 0001132  79.6253 280.4877 15.34403851 41367"
  },
  {
    "name": "STARLINK-35380",
    "noradId": "65905",
    "line1": "1 65905U 25224Z   26176.52364511  .00029576  00000+0  10065-2 0  9991",
    "line2": "2 65905  53.1564 230.4998 0001021  87.4688 272.6430 15.30207426 41336"
  },
  {
    "name": "STARLINK-35385",
    "noradId": "65906",
    "line1": "1 65906U 25224AA  26176.53831351  .00023930  00000+0  71702-3 0  9998",
    "line2": "2 65906  53.1581 228.4667 0001133  75.2389 284.8740 15.34403497 41398"
  }
]